{"fetched_at":"2026-07-11T06:35:06.838Z","source":"https://celestrak.org/NORAD/elements/gp.php?GROUP=oneweb&FORMAT=JSON","constellation":"oneweb","records":[{"OBJECT_NAME":"ONEWEB-0602","OBJECT_ID":"2022-166AA","EPOCH":"2026-07-10T02:04:38.846208","CLASSIFICATION_TYPE":"U","MEAN_MOTION":13.21824284,"ECCENTRICITY":0.00018453,"INCLINATION":87.9225,"RA_OF_ASC_NODE":239.4432,"ARG_OF_PERICENTER":101.3875,"MEAN_ANOMALY":258.7466,"EPHEMERIS_TYPE":0,"NORAD_CAT_ID":54666,"ELEMENT_SET_NO":999,"REV_AT_EPOCH":17457,"BSTAR":0.000016643972,"MEAN_MOTION_DOT":2e-7,"MEAN_MOTION_DDOT":0},{"OBJECT_NAME":"ONEWEB-0603","OBJECT_ID":"2022-166AB","EPOCH":"2026-07-10T02:13:07.527936","CLASSIFICATION_TYPE":"U","MEAN_MOTION":13.21827904,"ECCENTRICITY":0.00019436,"INCLINATION":87.9246,"RA_OF_ASC_NODE":239.4017,"ARG_OF_PERICENTER":96.5075,"MEAN_ANOMALY":263.628,"EPHEMERIS_TYPE":0,"NORAD_CAT_ID":54667,"ELEMENT_SET_NO":999,"REV_AT_EPOCH":17450,"BSTAR":0.00017741548,"MEAN_MOTION_DOT":8.6e-7,"MEAN_MOTION_DDOT":0},{"OBJECT_NAME":"ONEWEB-0604","OBJECT_ID":"2022-166AC","EPOCH":"2026-07-10T01:56:09.974400","CLASSIFICATION_TYPE":"U","MEAN_MOTION":13.21824069,"ECCENTRICITY":0.00020653,"INCLINATION":87.9249,"RA_OF_ASC_NODE":239.42,"ARG_OF_PERICENTER":98.3279,"MEAN_ANOMALY":261.8089,"EPHEMERIS_TYPE":0,"NORAD_CAT_ID":54668,"ELEMENT_SET_NO":999,"REV_AT_EPOCH":17446,"BSTAR":0.000024930898,"MEAN_MOTION_DOT":2.3e-7,"MEAN_MOTION_DDOT":0},{"OBJECT_NAME":"ONEWEB-0605","OBJECT_ID":"2022-166AD","EPOCH":"2026-07-10T03:35:28.923648","CLASSIFICATION_TYPE":"U","MEAN_MOTION":13.21827467,"ECCENTRICITY":0.00019935,"INCLINATION":87.9249,"RA_OF_ASC_NODE":239.418,"ARG_OF_PERICENTER":78.2615,"MEAN_ANOMALY":281.8743,"EPHEMERIS_TYPE":0,"NORAD_CAT_ID":54669,"ELEMENT_SET_NO":999,"REV_AT_EPOCH":17454,"BSTAR":-0.00010612573,"MEAN_MOTION_DOT":-3.1e-7,"MEAN_MOTION_DDOT":0},{"OBJECT_NAME":"ONEWEB-0606","OBJECT_ID":"2022-166AE","EPOCH":"2026-07-09T09:56:57.340320","CLASSIFICATION_TYPE":"U","MEAN_MOTION":13.21825,"ECCENTRICITY":0.00020948,"INCLINATION":87.9239,"RA_OF_ASC_NODE":239.5762,"ARG_OF_PERICENTER":101.1228,"MEAN_ANOMALY":259.0142,"EPHEMERIS_TYPE":0,"NORAD_CAT_ID":54670,"ELEMENT_SET_NO":999,"REV_AT_EPOCH":17450,"BSTAR":-0.00010321886,"MEAN_MOTION_DOT":-3e-7,"MEAN_MOTION_DDOT":0},{"OBJECT_NAME":"ONEWEB-0607","OBJECT_ID":"2022-166AF","EPOCH":"2026-07-10T03:18:33.784992","CLASSIFICATION_TYPE":"U","MEAN_MOTION":13.21825658,"ECCENTRICITY":0.00019032,"INCLINATION":87.9243,"RA_OF_ASC_NODE":239.4047,"ARG_OF_PERICENTER":96.7794,"MEAN_ANOMALY":263.3557,"EPHEMERIS_TYPE":0,"NORAD_CAT_ID":54671,"ELEMENT_SET_NO":999,"REV_AT_EPOCH":17457,"BSTAR":-0.000045396801,"MEAN_MOTION_DOT":-6e-8,"MEAN_MOTION_DDOT":0},{"OBJECT_NAME":"ONEWEB-0608","OBJECT_ID":"2022-166AG","EPOCH":"2026-07-10T03:28:12.448992","CLASSIFICATION_TYPE":"U","MEAN_MOTION":13.21823591,"ECCENTRICITY":0.00018582,"INCLINATION":87.9245,"RA_OF_ASC_NODE":239.4007,"ARG_OF_PERICENTER":82.9305,"MEAN_ANOMALY":277.204,"EPHEMERIS_TYPE":0,"NORAD_CAT_ID":54672,"ELEMENT_SET_NO":999,"REV_AT_EPOCH":17458,"BSTAR":-0.000001081938,"MEAN_MOTION_DOT":1.3e-7,"MEAN_MOTION_DDOT":0},{"OBJECT_NAME":"ONEWEB-0610","OBJECT_ID":"2022-166AH","EPOCH":"2026-07-10T02:59:11.014656","CLASSIFICATION_TYPE":"U","MEAN_MOTION":13.21825714,"ECCENTRICITY":0.00015278,"INCLINATION":87.9236,"RA_OF_ASC_NODE":239.4165,"ARG_OF_PERICENTER":88.2469,"MEAN_ANOMALY":271.884,"EPHEMERIS_TYPE":0,"NORAD_CAT_ID":54673,"ELEMENT_SET_NO":999,"REV_AT_EPOCH":17448,"BSTAR":0.000068071938,"MEAN_MOTION_DOT":4.1e-7,"MEAN_MOTION_DDOT":0},{"OBJECT_NAME":"ONEWEB-0611","OBJECT_ID":"2022-166AJ","EPOCH":"2026-07-10T04:38:27.768480","CLASSIFICATION_TYPE":"U","MEAN_MOTION":13.21826982,"ECCENTRICITY":0.00022924,"INCLINATION":87.924,"RA_OF_ASC_NODE":239.3981,"ARG_OF_PERICENTER":100.1117,"MEAN_ANOMALY":260.0276,"EPHEMERIS_TYPE":0,"NORAD_CAT_ID":54674,"ELEMENT_SET_NO":999,"REV_AT_EPOCH":17448,"BSTAR":0.000068180248,"MEAN_MOTION_DOT":4.1e-7,"MEAN_MOTION_DDOT":0},{"OBJECT_NAME":"ONEWEB-0612","OBJECT_ID":"2022-166AK","EPOCH":"2026-07-09T12:36:50.754816","CLASSIFICATION_TYPE":"U","MEAN_MOTION":13.21826147,"ECCENTRICITY":0.00019992,"INCLINATION":87.924,"RA_OF_ASC_NODE":239.5279,"ARG_OF_PERICENTER":96.2766,"MEAN_ANOMALY":263.8596,"EPHEMERIS_TYPE":0,"NORAD_CAT_ID":54675,"ELEMENT_SET_NO":999,"REV_AT_EPOCH":17438,"BSTAR":-0.00088361751,"MEAN_MOTION_DOT":-0.00000352,"MEAN_MOTION_DDOT":0},{"OBJECT_NAME":"ONEWEB-0615","OBJECT_ID":"2022-166AL","EPOCH":"2026-07-10T02:39:46.165536","CLASSIFICATION_TYPE":"U","MEAN_MOTION":13.21828071,"ECCENTRICITY":0.00022081,"INCLINATION":87.9237,"RA_OF_ASC_NODE":239.4256,"ARG_OF_PERICENTER":103.4276,"MEAN_ANOMALY":256.7104,"EPHEMERIS_TYPE":0,"NORAD_CAT_ID":54676,"ELEMENT_SET_NO":999,"REV_AT_EPOCH":17447,"BSTAR":0.000018948939,"MEAN_MOTION_DOT":2.1e-7,"MEAN_MOTION_DDOT":0},{"OBJECT_NAME":"ONEWEB-0655","OBJECT_ID":"2022-166AM","EPOCH":"2026-07-10T02:05:51.582912","CLASSIFICATION_TYPE":"U","MEAN_MOTION":13.2182488,"ECCENTRICITY":0.00018447,"INCLINATION":87.9233,"RA_OF_ASC_NODE":239.431,"ARG_OF_PERICENTER":99.6495,"MEAN_ANOMALY":260.4848,"EPHEMERIS_TYPE":0,"NORAD_CAT_ID":54677,"ELEMENT_SET_NO":999,"REV_AT_EPOCH":17446,"BSTAR":-0.00051929539,"MEAN_MOTION_DOT":-0.00000201,"MEAN_MOTION_DDOT":0},{"OBJECT_NAME":"ONEWEB-0659","OBJECT_ID":"2022-166AN","EPOCH":"2026-07-10T02:30:05.372640","CLASSIFICATION_TYPE":"U","MEAN_MOTION":13.21824003,"ECCENTRICITY":0.00021461,"INCLINATION":87.9233,"RA_OF_ASC_NODE":239.4278,"ARG_OF_PERICENTER":96.5938,"MEAN_ANOMALY":263.544,"EPHEMERIS_TYPE":0,"NORAD_CAT_ID":54678,"ELEMENT_SET_NO":999,"REV_AT_EPOCH":17455,"BSTAR":0.000015505162,"MEAN_MOTION_DOT":1.9e-7,"MEAN_MOTION_DDOT":0},{"OBJECT_NAME":"ONEWEB-0685","OBJECT_ID":"2022-166AP","EPOCH":"2026-07-10T02:29:41.101152","CLASSIFICATION_TYPE":"U","MEAN_MOTION":13.21847896,"ECCENTRICITY":0.00018079,"INCLINATION":87.9235,"RA_OF_ASC_NODE":239.4186,"ARG_OF_PERICENTER":86.7242,"MEAN_ANOMALY":273.4099,"EPHEMERIS_TYPE":0,"NORAD_CAT_ID":54679,"ELEMENT_SET_NO":999,"REV_AT_EPOCH":17444,"BSTAR":0.000010667575,"MEAN_MOTION_DOT":1.7e-7,"MEAN_MOTION_DDOT":0},{"OBJECT_NAME":"ONEWEB-0712","OBJECT_ID":"2022-166AQ","EPOCH":"2026-07-10T02:05:24.647712","CLASSIFICATION_TYPE":"U","MEAN_MOTION":13.1659546,"ECCENTRICITY":0.00017535,"INCLINATION":87.9084,"RA_OF_ASC_NODE":224.2263,"ARG_OF_PERICENTER":106.9555,"MEAN_ANOMALY":253.1769,"EPHEMERIS_TYPE":0,"NORAD_CAT_ID":54680,"ELEMENT_SET_NO":999,"REV_AT_EPOCH":17507,"BSTAR":0.00020868944,"MEAN_MOTION_DOT":9.3e-7,"MEAN_MOTION_DDOT":0},{"OBJECT_NAME":"ONEWEB-0714","OBJECT_ID":"2022-166AR","EPOCH":"2026-07-10T02:37:22.958400","CLASSIFICATION_TYPE":"U","MEAN_MOTION":13.21823105,"ECCENTRICITY":0.00017928,"INCLINATION":87.9225,"RA_OF_ASC_NODE":239.4178,"ARG_OF_PERICENTER":111.2333,"MEAN_ANOMALY":248.8993,"EPHEMERIS_TYPE":0,"NORAD_CAT_ID":54681,"ELEMENT_SET_NO":999,"REV_AT_EPOCH":17456,"BSTAR":0.0012547437,"MEAN_MOTION_DOT":0.00000531,"MEAN_MOTION_DDOT":0},{"OBJECT_NAME":"ONEWEB-0532","OBJECT_ID":"2023-004A","EPOCH":"2026-07-10T10:06:01.004544","CLASSIFICATION_TYPE":"U","MEAN_MOTION":13.17648323,"ECCENTRICITY":0.00020298,"INCLINATION":87.9132,"RA_OF_ASC_NODE":1.2413,"ARG_OF_PERICENTER":82.3139,"MEAN_ANOMALY":277.8223,"EPHEMERIS_TYPE":0,"NORAD_CAT_ID":55140,"ELEMENT_SET_NO":999,"REV_AT_EPOCH":17064,"BSTAR":0.000060303617,"MEAN_MOTION_DOT":3.6e-7,"MEAN_MOTION_DDOT":0},{"OBJECT_NAME":"ONEWEB-0533","OBJECT_ID":"2023-004B","EPOCH":"2026-07-10T09:42:54.275904","CLASSIFICATION_TYPE":"U","MEAN_MOTION":13.12443273,"ECCENTRICITY":0.00016713,"INCLINATION":87.8958,"RA_OF_ASC_NODE":346.0533,"ARG_OF_PERICENTER":92.1698,"MEAN_ANOMALY":267.9622,"EPHEMERIS_TYPE":0,"NORAD_CAT_ID":55141,"ELEMENT_SET_NO":999,"REV_AT_EPOCH":17110,"BSTAR":0.00045893123,"MEAN_MOTION_DOT":0.00000178,"MEAN_MOTION_DDOT":0},{"OBJECT_NAME":"ONEWEB-0541","OBJECT_ID":"2023-004C","EPOCH":"2026-07-10T10:52:03.195264","CLASSIFICATION_TYPE":"U","MEAN_MOTION":13.1141431,"ECCENTRICITY":0.00020292,"INCLINATION":87.8889,"RA_OF_ASC_NODE":16.4267,"ARG_OF_PERICENTER":89.6645,"MEAN_ANOMALY":270.4716,"EPHEMERIS_TYPE":0,"NORAD_CAT_ID":55142,"ELEMENT_SET_NO":999,"REV_AT_EPOCH":16899,"BSTAR":-0.00071551068,"MEAN_MOTION_DOT":-0.00000241,"MEAN_MOTION_DDOT":0},{"OBJECT_NAME":"ONEWEB-0543","OBJECT_ID":"2023-004D","EPOCH":"2026-07-09T14:57:34.381440","CLASSIFICATION_TYPE":"U","MEAN_MOTION":13.18686634,"ECCENTRICITY":0.00017873,"INCLINATION":87.9181,"RA_OF_ASC_NODE":331.0059,"ARG_OF_PERICENTER":105.0538,"MEAN_ANOMALY":255.0792,"EPHEMERIS_TYPE":0,"NORAD_CAT_ID":55143,"ELEMENT_SET_NO":999,"REV_AT_EPOCH":17265,"BSTAR":0.000094038845,"MEAN_MOTION_DOT":5e-7,"MEAN_MOTION_DDOT":0},{"OBJECT_NAME":"ONEWEB-0544","OBJECT_ID":"2023-004E","EPOCH":"2026-07-09T14:47:51.567648","CLASSIFICATION_TYPE":"U","MEAN_MOTION":13.18687306,"ECCENTRICITY":0.0001982,"INCLINATION":87.9177,"RA_OF_ASC_NODE":331.007,"ARG_OF_PERICENTER":102.6328,"MEAN_ANOMALY":257.5026,"EPHEMERIS_TYPE":0,"NORAD_CAT_ID":55144,"ELEMENT_SET_NO":999,"REV_AT_EPOCH":17265,"BSTAR":-0.000040376638,"MEAN_MOTION_DOT":-3e-8,"MEAN_MOTION_DDOT":0},{"OBJECT_NAME":"ONEWEB-0560","OBJECT_ID":"2023-004F","EPOCH":"2026-07-10T08:50:45.648960","CLASSIFICATION_TYPE":"U","MEAN_MOTION":13.18684401,"ECCENTRICITY":0.00019878,"INCLINATION":87.9182,"RA_OF_ASC_NODE":330.847,"ARG_OF_PERICENTER":105.5752,"MEAN_ANOMALY":254.56,"EPHEMERIS_TYPE":0,"NORAD_CAT_ID":55145,"ELEMENT_SET_NO":999,"REV_AT_EPOCH":17276,"BSTAR":0.00012516541,"MEAN_MOTION_DOT":6.2e-7,"MEAN_MOTION_DDOT":0},{"OBJECT_NAME":"ONEWEB-0565","OBJECT_ID":"2023-004G","EPOCH":"2026-07-10T08:41:04.085376","CLASSIFICATION_TYPE":"U","MEAN_MOTION":13.18686474,"ECCENTRICITY":0.00022714,"INCLINATION":87.9172,"RA_OF_ASC_NODE":330.8741,"ARG_OF_PERICENTER":96.6077,"MEAN_ANOMALY":263.5313,"EPHEMERIS_TYPE":0,"NORAD_CAT_ID":55146,"ELEMENT_SET_NO":999,"REV_AT_EPOCH":17275,"BSTAR":0.00006969155,"MEAN_MOTION_DOT":4e-7,"MEAN_MOTION_DDOT":0}]}
